CCSDS_OMM_VERS = 2.0
CREATION_DATE  = 
ORIGINATOR     = 

OBJECT_NAME    = STARLINK-36430
OBJECT_ID      = 2026-002X
CENTER_NAME    = EARTH
REF_FRAME      = TEME
TIME_SYSTEM    = UTC
MEAN_ELEMENT_THEORY = SGP/SGP4

EPOCH          = 2026-01-23T14:17:59.578080
MEAN_MOTION    = 15.75207900
ECCENTRICITY   = .00016493
INCLINATION    = 42.9983
RA_OF_ASC_NODE = 223.3070
ARG_OF_PERICENTER = 270.0052
MEAN_ANOMALY   = 90.0628

EPHEMERIS_TYPE = 0
CLASSIFICATION_TYPE = U
NORAD_CAT_ID   = 67326
ELEMENT_SET_NO = 999
REV_AT_EPOCH   = 430
BSTAR          = .27146202E-2
MEAN_MOTION_DOT = .442393E-2
MEAN_MOTION_DDOT = 0

CCSDS_OMM_VERS = 2.0
CREATION_DATE  = 
ORIGINATOR     = 

OBJECT_NAME    = STARLINK-36501
OBJECT_ID      = 2026-002Y
CENTER_NAME    = EARTH
REF_FRAME      = TEME
TIME_SYSTEM    = UTC
MEAN_ELEMENT_THEORY = SGP/SGP4

EPOCH          = 2026-01-23T14:18:28.636992
MEAN_MOTION    = 15.75204551
ECCENTRICITY   = .00025081
INCLINATION    = 42.9980
RA_OF_ASC_NODE = 223.3100
ARG_OF_PERICENTER = 237.7771
MEAN_ANOMALY   = 122.2855

EPHEMERIS_TYPE = 0
CLASSIFICATION_TYPE = U
NORAD_CAT_ID   = 67327
ELEMENT_SET_NO = 999
REV_AT_EPOCH   = 414
BSTAR          = .26947352E-2
MEAN_MOTION_DOT = .438892E-2
MEAN_MOTION_DDOT = 0

CCSDS_OMM_VERS = 2.0
CREATION_DATE  = 
ORIGINATOR     = 

OBJECT_NAME    = STARLINK-36489
OBJECT_ID      = 2026-002Z
CENTER_NAME    = EARTH
REF_FRAME      = TEME
TIME_SYSTEM    = UTC
MEAN_ELEMENT_THEORY = SGP/SGP4

EPOCH          = 2026-01-23T14:17:30.473376
MEAN_MOTION    = 15.75206242
ECCENTRICITY   = .00017501
INCLINATION    = 42.9982
RA_OF_ASC_NODE = 223.3048
ARG_OF_PERICENTER = 273.5749
MEAN_ANOMALY   = 86.4920

EPHEMERIS_TYPE = 0
CLASSIFICATION_TYPE = U
NORAD_CAT_ID   = 67328
ELEMENT_SET_NO = 999
REV_AT_EPOCH   = 430
BSTAR          = .28698222E-2
MEAN_MOTION_DOT = .469191E-2
MEAN_MOTION_DDOT = 0

CCSDS_OMM_VERS = 2.0
CREATION_DATE  = 
ORIGINATOR     = 

OBJECT_NAME    = STARLINK-36496
OBJECT_ID      = 2026-002AA
CENTER_NAME    = EARTH
REF_FRAME      = TEME
TIME_SYSTEM    = UTC
MEAN_ELEMENT_THEORY = SGP/SGP4

EPOCH          = 2026-01-23T14:16:32.018592
MEAN_MOTION    = 15.75207370
ECCENTRICITY   = .00017717
INCLINATION    = 42.9987
RA_OF_ASC_NODE = 223.2977
ARG_OF_PERICENTER = 235.1254
MEAN_ANOMALY   = 124.9449

EPHEMERIS_TYPE = 0
CLASSIFICATION_TYPE = U
NORAD_CAT_ID   = 67329
ELEMENT_SET_NO = 999
REV_AT_EPOCH   = 412
BSTAR          = .27523322E-2
MEAN_MOTION_DOT = .448884E-2
MEAN_MOTION_DDOT = 0

CCSDS_OMM_VERS = 2.0
CREATION_DATE  = 
ORIGINATOR     = 

OBJECT_NAME    = STARLINK-36483
OBJECT_ID      = 2026-002AB
CENTER_NAME    = EARTH
REF_FRAME      = TEME
TIME_SYSTEM    = UTC
MEAN_ELEMENT_THEORY = SGP/SGP4

EPOCH          = 2026-01-23T14:15:33.761664
MEAN_MOTION    = 15.75204968
ECCENTRICITY   = .00018643
INCLINATION    = 42.9984
RA_OF_ASC_NODE = 223.2921
ARG_OF_PERICENTER = 254.2240
MEAN_ANOMALY   = 105.8424

EPHEMERIS_TYPE = 0
CLASSIFICATION_TYPE = U
NORAD_CAT_ID   = 67330
ELEMENT_SET_NO = 999
REV_AT_EPOCH   = 430
BSTAR          = .29434516E-2
MEAN_MOTION_DOT = .481952E-2
MEAN_MOTION_DDOT = 0

CCSDS_OMM_VERS = 2.0
CREATION_DATE  = 
ORIGINATOR     = 

OBJECT_NAME    = STARLINK-36494
OBJECT_ID      = 2026-002AC
CENTER_NAME    = EARTH
REF_FRAME      = TEME
TIME_SYSTEM    = UTC
MEAN_ELEMENT_THEORY = SGP/SGP4

EPOCH          = 2026-01-23T14:17:01.241664
MEAN_MOTION    = 15.75200020
ECCENTRICITY   = .00019796
INCLINATION    = 42.9985
RA_OF_ASC_NODE = 223.3010
ARG_OF_PERICENTER = 265.0843
MEAN_ANOMALY   = 94.9800

EPHEMERIS_TYPE = 0
CLASSIFICATION_TYPE = U
NORAD_CAT_ID   = 67331
ELEMENT_SET_NO = 999
REV_AT_EPOCH   = 430
BSTAR          = .27405463E-2
MEAN_MOTION_DOT = .446695E-2
MEAN_MOTION_DDOT = 0

CCSDS_OMM_VERS = 2.0
CREATION_DATE  = 
ORIGINATOR     = 

OBJECT_NAME    = STARLINK-36492
OBJECT_ID      = 2026-002AD
CENTER_NAME    = EARTH
REF_FRAME      = TEME
TIME_SYSTEM    = UTC
MEAN_ELEMENT_THEORY = SGP/SGP4

EPOCH          = 2026-01-23T14:16:02.870688
MEAN_MOTION    = 15.75171447
ECCENTRICITY   = .00019902
INCLINATION    = 42.9983
RA_OF_ASC_NODE = 223.2953
ARG_OF_PERICENTER = 248.6403
MEAN_ANOMALY   = 111.4254

EPHEMERIS_TYPE = 0
CLASSIFICATION_TYPE = U
NORAD_CAT_ID   = 67332
ELEMENT_SET_NO = 999
REV_AT_EPOCH   = 430
BSTAR          = .22527023E-2
MEAN_MOTION_DOT = .36296E-2
MEAN_MOTION_DDOT = 0

CCSDS_OMM_VERS = 2.0
CREATION_DATE  = 
ORIGINATOR     = 

OBJECT_NAME    = STARLINK-36427
OBJECT_ID      = 2026-002AE
CENTER_NAME    = EARTH
REF_FRAME      = TEME
TIME_SYSTEM    = UTC
MEAN_ELEMENT_THEORY = SGP/SGP4

EPOCH          = 2026-01-23T14:00:01.999872
MEAN_MOTION    = 15.63412021
ECCENTRICITY   = .00013529
INCLINATION    = 42.9992
RA_OF_ASC_NODE = 222.8594
ARG_OF_PERICENTER = 267.9816
MEAN_ANOMALY   = 227.0194

EPHEMERIS_TYPE = 0
CLASSIFICATION_TYPE = U
NORAD_CAT_ID   = 67333
ELEMENT_SET_NO = 999
REV_AT_EPOCH   = 422
BSTAR          = -.23962413E-1
MEAN_MOTION_DOT = -.1998089E-1
MEAN_MOTION_DDOT = 0

CCSDS_OMM_VERS = 2.0
CREATION_DATE  = 
ORIGINATOR     = 

OBJECT_NAME    = STARLINK-35343
OBJECT_ID      = 2026-003A
CENTER_NAME    = EARTH
REF_FRAME      = TEME
TIME_SYSTEM    = UTC
MEAN_ELEMENT_THEORY = SGP/SGP4

EPOCH          = 2026-01-23T14:00:01.999872
MEAN_MOTION    = 15.75010334
ECCENTRICITY   = .00016559
INCLINATION    = 42.9991
RA_OF_ASC_NODE = 126.6704
ARG_OF_PERICENTER = 276.5218
MEAN_ANOMALY   = 305.9379

EPHEMERIS_TYPE = 0
CLASSIFICATION_TYPE = U
NORAD_CAT_ID   = 67334
ELEMENT_SET_NO = 999
REV_AT_EPOCH   = 336
BSTAR          = .18617555E-3
MEAN_MOTION_DOT = .2818E-3
MEAN_MOTION_DDOT = 0

CCSDS_OMM_VERS = 2.0
CREATION_DATE  = 
ORIGINATOR     = 

OBJECT_NAME    = STARLINK-36486
OBJECT_ID      = 2026-003B
CENTER_NAME    = EARTH
REF_FRAME      = TEME
TIME_SYSTEM    = UTC
MEAN_ELEMENT_THEORY = SGP/SGP4

EPOCH          = 2026-01-23T14:00:01.999872
MEAN_MOTION    = 15.74983268
ECCENTRICITY   = .00016966
INCLINATION    = 42.9991
RA_OF_ASC_NODE = 126.6658
ARG_OF_PERICENTER = 271.4872
MEAN_ANOMALY   = 312.9049

EPHEMERIS_TYPE = 0
CLASSIFICATION_TYPE = U
NORAD_CAT_ID   = 67335
ELEMENT_SET_NO = 999
REV_AT_EPOCH   = 342
BSTAR          = .51842112E-3
MEAN_MOTION_DOT = .79718E-3
MEAN_MOTION_DDOT = 0

CCSDS_OMM_VERS = 2.0
CREATION_DATE  = 
ORIGINATOR     = 

OBJECT_NAME    = STARLINK-36480
OBJECT_ID      = 2026-003C
CENTER_NAME    = EARTH
REF_FRAME      = TEME
TIME_SYSTEM    = UTC
MEAN_ELEMENT_THEORY = SGP/SGP4

EPOCH          = 2026-01-23T14:00:01.999872
MEAN_MOTION    = 15.74984229
ECCENTRICITY   = .00016273
INCLINATION    = 42.9990
RA_OF_ASC_NODE = 126.6609
ARG_OF_PERICENTER = 275.0850
MEAN_ANOMALY   = 311.2246

EPHEMERIS_TYPE = 0
CLASSIFICATION_TYPE = U
NORAD_CAT_ID   = 67336
ELEMENT_SET_NO = 999
REV_AT_EPOCH   = 342
BSTAR          = .49284831E-3
MEAN_MOTION_DOT = .75728E-3
MEAN_MOTION_DDOT = 0

CCSDS_OMM_VERS = 2.0
CREATION_DATE  = 
ORIGINATOR     = 

OBJECT_NAME    = STARLINK-36410
OBJECT_ID      = 2026-003D
CENTER_NAME    = EARTH
REF_FRAME      = TEME
TIME_SYSTEM    = UTC
MEAN_ELEMENT_THEORY = SGP/SGP4

EPOCH          = 2026-01-23T14:00:01.999872
MEAN_MOTION    = 15.74995573
ECCENTRICITY   = .00015915
INCLINATION    = 42.9992
RA_OF_ASC_NODE = 126.6561
ARG_OF_PERICENTER = 296.4245
MEAN_ANOMALY   = 291.7913

EPHEMERIS_TYPE = 0
CLASSIFICATION_TYPE = U
NORAD_CAT_ID   = 67337
ELEMENT_SET_NO = 999
REV_AT_EPOCH   = 342
BSTAR          = .35467256E-3
MEAN_MOTION_DOT = .54251E-3
MEAN_MOTION_DDOT = 0

CCSDS_OMM_VERS = 2.0
CREATION_DATE  = 
ORIGINATOR     = 

OBJECT_NAME    = STARLINK-36413
OBJECT_ID      = 2026-003E
CENTER_NAME    = EARTH
REF_FRAME      = TEME
TIME_SYSTEM    = UTC
MEAN_ELEMENT_THEORY = SGP/SGP4

EPOCH          = 2026-01-23T14:00:01.999872
MEAN_MOTION    = 15.75014071
ECCENTRICITY   = .00016857
INCLINATION    = 42.9993
RA_OF_ASC_NODE = 126.6512
ARG_OF_PERICENTER = 272.3070
MEAN_ANOMALY   = 317.8308

EPHEMERIS_TYPE = 0
CLASSIFICATION_TYPE = U
NORAD_CAT_ID   = 67338
ELEMENT_SET_NO = 999
REV_AT_EPOCH   = 342
BSTAR          = .18763779E-3
MEAN_MOTION_DOT = .28411E-3
MEAN_MOTION_DDOT = 0

CCSDS_OMM_VERS = 2.0
CREATION_DATE  = 
ORIGINATOR     = 

OBJECT_NAME    = STARLINK-36451
OBJECT_ID      = 2026-003F
CENTER_NAME    = EARTH
REF_FRAME      = TEME
TIME_SYSTEM    = UTC
MEAN_ELEMENT_THEORY = SGP/SGP4

EPOCH          = 2026-01-23T14:00:01.999872
MEAN_MOTION    = 15.74986574
ECCENTRICITY   = .00017251
INCLINATION    = 42.9990
RA_OF_ASC_NODE = 126.6461
ARG_OF_PERICENTER = 266.4318
MEAN_ANOMALY   = 325.6161

EPHEMERIS_TYPE = 0
CLASSIFICATION_TYPE = U
NORAD_CAT_ID   = 67339
ELEMENT_SET_NO = 999
REV_AT_EPOCH   = 342
BSTAR          = .52494283E-3
MEAN_MOTION_DOT = .80748E-3
MEAN_MOTION_DDOT = 0

CCSDS_OMM_VERS = 2.0
CREATION_DATE  = 
ORIGINATOR     = 

OBJECT_NAME    = STARLINK-36339
OBJECT_ID      = 2026-003G
CENTER_NAME    = EARTH
REF_FRAME      = TEME
TIME_SYSTEM    = UTC
MEAN_ELEMENT_THEORY = SGP/SGP4

EPOCH          = 2026-01-23T14:00:01.999872
MEAN_MOTION    = 15.75037832
ECCENTRICITY   = .00017861
INCLINATION    = 42.9993
RA_OF_ASC_NODE = 126.6419
ARG_OF_PERICENTER = 279.6185
MEAN_ANOMALY   = 314.3236

EPHEMERIS_TYPE = 0
CLASSIFICATION_TYPE = U
NORAD_CAT_ID   = 67340
ELEMENT_SET_NO = 999
REV_AT_EPOCH   = 342
BSTAR          = .42503799E-4
MEAN_MOTION_DOT = .6056E-4
MEAN_MOTION_DDOT = 0

